[{"OBJECT_NAME":"TEVEL2-1","OBJECT_ID":"2025-052H","EPOCH":"2026-03-03T16:43:43.522464","MEAN_MOTION":15.30046561,"ECCENTRICITY":0.00044321,"INCLINATION":97.401,"RA_OF_ASC_NODE":318.8401,"ARG_OF_PERICENTER":116.6791,"MEAN_ANOMALY":243.4904,"EPHEMERIS_TYPE":0,"CLASSIFICATION_TYPE":"U","NORAD_CAT_ID":63217,"ELEMENT_SET_NO":999,"REV_AT_EPOCH":5394,"BSTAR":0.00088349724,"MEAN_MOTION_DOT":0.00025683,"MEAN_MOTION_DDOT":0},{"OBJECT_NAME":"TEVEL2-3","OBJECT_ID":"2025-052J","EPOCH":"2026-03-04T03:39:38.598912","MEAN_MOTION":15.30107408,"ECCENTRICITY":0.0004492,"INCLINATION":97.401,"RA_OF_ASC_NODE":319.3048,"ARG_OF_PERICENTER":117.1889,"MEAN_ANOMALY":242.981,"EPHEMERIS_TYPE":0,"CLASSIFICATION_TYPE":"U","NORAD_CAT_ID":63218,"ELEMENT_SET_NO":999,"REV_AT_EPOCH":5401,"BSTAR":0.00096266,"MEAN_MOTION_DOT":0.00028053,"MEAN_MOTION_DDOT":0},{"OBJECT_NAME":"TEVEL2-2","OBJECT_ID":"2025-052K","EPOCH":"2026-03-04T03:43:54.557184","MEAN_MOTION":15.30075648,"ECCENTRICITY":0.0004405,"INCLINATION":97.401,"RA_OF_ASC_NODE":319.2973,"ARG_OF_PERICENTER":117.5377,"MEAN_ANOMALY":242.6311,"EPHEMERIS_TYPE":0,"CLASSIFICATION_TYPE":"U","NORAD_CAT_ID":63219,"ELEMENT_SET_NO":999,"REV_AT_EPOCH":5401,"BSTAR":0.00096812,"MEAN_MOTION_DOT":0.00028185,"MEAN_MOTION_DDOT":0},{"OBJECT_NAME":"TEVEL2-9","OBJECT_ID":"2025-052AD","EPOCH":"2026-03-04T03:18:19.467648","MEAN_MOTION":15.28379573,"ECCENTRICITY":0.000754,"INCLINATION":97.407,"RA_OF_ASC_NODE":318.8588,"ARG_OF_PERICENTER":140.8467,"MEAN_ANOMALY":219.3319,"EPHEMERIS_TYPE":0,"CLASSIFICATION_TYPE":"U","NORAD_CAT_ID":63237,"ELEMENT_SET_NO":999,"REV_AT_EPOCH":5396,"BSTAR":0.0009678,"MEAN_MOTION_DOT":0.00026757,"MEAN_MOTION_DDOT":0},{"OBJECT_NAME":"TEVEL2-7","OBJECT_ID":"2025-052AE","EPOCH":"2026-03-03T15:17:52.247328","MEAN_MOTION":15.28142273,"ECCENTRICITY":0.0007576,"INCLINATION":97.4078,"RA_OF_ASC_NODE":318.3155,"ARG_OF_PERICENTER":141.9181,"MEAN_ANOMALY":218.2595,"EPHEMERIS_TYPE":0,"CLASSIFICATION_TYPE":"U","NORAD_CAT_ID":63238,"ELEMENT_SET_NO":999,"REV_AT_EPOCH":5388,"BSTAR":0.00082474,"MEAN_MOTION_DOT":0.00022614,"MEAN_MOTION_DDOT":0},{"OBJECT_NAME":"TEVEL2-8","OBJECT_ID":"2025-052AF","EPOCH":"2026-03-03T15:27:51.382080","MEAN_MOTION":15.28119678,"ECCENTRICITY":0.000748,"INCLINATION":97.4074,"RA_OF_ASC_NODE":318.3034,"ARG_OF_PERICENTER":142.3378,"MEAN_ANOMALY":217.8387,"EPHEMERIS_TYPE":0,"CLASSIFICATION_TYPE":"U","NORAD_CAT_ID":63239,"ELEMENT_SET_NO":999,"REV_AT_EPOCH":5388,"BSTAR":0.0008367,"MEAN_MOTION_DOT":0.00022928,"MEAN_MOTION_DDOT":0},{"OBJECT_NAME":"HADES-ICM","OBJECT_ID":"2025-052BN","EPOCH":"2026-03-04T04:00:26.604576","MEAN_MOTION":15.55090761,"ECCENTRICITY":0.0008433,"INCLINATION":97.3959,"RA_OF_ASC_NODE":323.4202,"ARG_OF_PERICENTER":121.7965,"MEAN_ANOMALY":238.4111,"EPHEMERIS_TYPE":0,"CLASSIFICATION_TYPE":"U","NORAD_CAT_ID":63492,"ELEMENT_SET_NO":999,"REV_AT_EPOCH":5428,"BSTAR":0.0026029,"MEAN_MOTION_DOT":0.00178886,"MEAN_MOTION_DDOT":0},{"OBJECT_NAME":"INNOSAT 16 (RS92S7)","OBJECT_ID":"2025-155C","EPOCH":"2026-03-04T03:15:57.811392","MEAN_MOTION":15.24074001,"ECCENTRICITY":0.00103,"INCLINATION":97.4455,"RA_OF_ASC_NODE":30.772,"ARG_OF_PERICENTER":184.6786,"MEAN_ANOMALY":175.4356,"EPHEMERIS_TYPE":0,"CLASSIFICATION_TYPE":"U","NORAD_CAT_ID":64878,"ELEMENT_SET_NO":999,"REV_AT_EPOCH":6466,"BSTAR":0.00042776,"MEAN_MOTION_DOT":0.00010332,"MEAN_MOTION_DDOT":0},{"OBJECT_NAME":"GEOSCAN 6 (RS92S6)","OBJECT_ID":"2025-155D","EPOCH":"2026-03-04T03:33:31.982976","MEAN_MOTION":15.27798683,"ECCENTRICITY":0.0007939,"INCLINATION":97.4454,"RA_OF_ASC_NODE":31.5362,"ARG_OF_PERICENTER":172.4745,"MEAN_ANOMALY":187.6615,"EPHEMERIS_TYPE":0,"CLASSIFICATION_TYPE":"U","NORAD_CAT_ID":64879,"ELEMENT_SET_NO":999,"REV_AT_EPOCH":6471,"BSTAR":0.00065898,"MEAN_MOTION_DOT":0.00017856,"MEAN_MOTION_DDOT":0},{"OBJECT_NAME":"GEOSCAN 1 (RS92S1)","OBJECT_ID":"2025-155E","EPOCH":"2026-03-04T02:52:57.772704","MEAN_MOTION":15.28208402,"ECCENTRICITY":0.0007861,"INCLINATION":97.4453,"RA_OF_ASC_NODE":31.5784,"ARG_OF_PERICENTER":172.6189,"MEAN_ANOMALY":187.5168,"EPHEMERIS_TYPE":0,"CLASSIFICATION_TYPE":"U","NORAD_CAT_ID":64880,"ELEMENT_SET_NO":999,"REV_AT_EPOCH":6471,"BSTAR":0.00071981,"MEAN_MOTION_DOT":0.00019761,"MEAN_MOTION_DDOT":0},{"OBJECT_NAME":"239ALFEROV (RS61S)","OBJECT_ID":"2025-155F","EPOCH":"2026-03-04T03:37:48.573696","MEAN_MOTION":15.29679835,"ECCENTRICITY":0.0007587,"INCLINATION":97.4458,"RA_OF_ASC_NODE":31.8702,"ARG_OF_PERICENTER":169.7253,"MEAN_ANOMALY":190.4143,"EPHEMERIS_TYPE":0,"CLASSIFICATION_TYPE":"U","NORAD_CAT_ID":64881,"ELEMENT_SET_NO":999,"REV_AT_EPOCH":6473,"BSTAR":0.00089555,"MEAN_MOTION_DOT":0.00025756,"MEAN_MOTION_DDOT":0},{"OBJECT_NAME":"GEOSCAN 2 (RS92S2)","OBJECT_ID":"2025-155Q","EPOCH":"2026-03-04T03:12:19.806912","MEAN_MOTION":15.28511105,"ECCENTRICITY":0.0007735,"INCLINATION":97.4451,"RA_OF_ASC_NODE":31.7002,"ARG_OF_PERICENTER":158.6309,"MEAN_ANOMALY":201.5255,"EPHEMERIS_TYPE":0,"CLASSIFICATION_TYPE":"U","NORAD_CAT_ID":64890,"ELEMENT_SET_NO":999,"REV_AT_EPOCH":6472,"BSTAR":0.00070642,"MEAN_MOTION_DOT":0.00019571,"MEAN_MOTION_DDOT":0},{"OBJECT_NAME":"GEOSCAN 5 (RS92S5)","OBJECT_ID":"2025-155R","EPOCH":"2026-03-04T03:54:10.500192","MEAN_MOTION":15.30013865,"ECCENTRICITY":0.0006221,"INCLINATION":97.4452,"RA_OF_ASC_NODE":31.9775,"ARG_OF_PERICENTER":172.4847,"MEAN_ANOMALY":187.6488,"EPHEMERIS_TYPE":0,"CLASSIFICATION_TYPE":"U","NORAD_CAT_ID":64891,"ELEMENT_SET_NO":999,"REV_AT_EPOCH":6474,"BSTAR":0.00086757,"MEAN_MOTION_DOT":0.00025198,"MEAN_MOTION_DDOT":0},{"OBJECT_NAME":"GEOSCAN 4 (RS92S4)","OBJECT_ID":"2025-155S","EPOCH":"2026-03-04T03:43:44.522688","MEAN_MOTION":15.30115353,"ECCENTRICITY":0.0006216,"INCLINATION":97.4454,"RA_OF_ASC_NODE":31.9936,"ARG_OF_PERICENTER":172.7609,"MEAN_ANOMALY":187.3722,"EPHEMERIS_TYPE":0,"CLASSIFICATION_TYPE":"U","NORAD_CAT_ID":64892,"ELEMENT_SET_NO":999,"REV_AT_EPOCH":6474,"BSTAR":0.0008518,"MEAN_MOTION_DOT":0.00024815,"MEAN_MOTION_DDOT":0},{"OBJECT_NAME":"GEOSCAN 3 (RS92S3)","OBJECT_ID":"2025-155T","EPOCH":"2026-03-04T03:18:44.417376","MEAN_MOTION":15.3138891,"ECCENTRICITY":0.0005787,"INCLINATION":97.4446,"RA_OF_ASC_NODE":32.1566,"ARG_OF_PERICENTER":172.5945,"MEAN_ANOMALY":187.5383,"EPHEMERIS_TYPE":0,"CLASSIFICATION_TYPE":"U","NORAD_CAT_ID":64893,"ELEMENT_SET_NO":999,"REV_AT_EPOCH":6475,"BSTAR":0.0010341,"MEAN_MOTION_DOT":0.0003138,"MEAN_MOTION_DDOT":0},{"OBJECT_NAME":"INNOSAT 3 (RS92S0)","OBJECT_ID":"2025-155U","EPOCH":"2026-03-04T02:57:50.477760","MEAN_MOTION":15.36177668,"ECCENTRICITY":0.000536,"INCLINATION":97.4417,"RA_OF_ASC_NODE":32.752,"ARG_OF_PERICENTER":162.0521,"MEAN_ANOMALY":198.0912,"EPHEMERIS_TYPE":0,"CLASSIFICATION_TYPE":"U","NORAD_CAT_ID":64894,"ELEMENT_SET_NO":999,"REV_AT_EPOCH":6479,"BSTAR":0.0014661,"MEAN_MOTION_DOT":0.00051912,"MEAN_MOTION_DDOT":0}]
