TEVEL2-1                
1 63217U 25052H   26062.69703151  .00025683  00000+0  88350-3 0  9991
2 63217  97.4010 318.8401 0004432 116.6791 243.4904 15.30046561 53949
TEVEL2-3                
1 63218U 25052J   26063.15253008  .00028053  00000+0  96266-3 0  9994
2 63218  97.4010 319.3048 0004492 117.1889 242.9810 15.30107408 54010
TEVEL2-2                
1 63219U 25052K   26063.15549256  .00028185  00000+0  96812-3 0  9991
2 63219  97.4010 319.2973 0004405 117.5377 242.6311 15.30075648 54010
TEVEL2-9                
1 63237U 25052AD  26063.13772532  .00026757  00000+0  96780-3 0  9991
2 63237  97.4070 318.8588 0007540 140.8467 219.3319 15.28379573 53968
TEVEL2-7                
1 63238U 25052AE  26062.63741027  .00022614  00000+0  82474-3 0  9994
2 63238  97.4078 318.3155 0007576 141.9181 218.2595 15.28142273 53886
TEVEL2-8                
1 63239U 25052AF  26062.64434470  .00022928  00000+0  83670-3 0  9994
2 63239  97.4074 318.3034 0007480 142.3378 217.8387 15.28119678 53883
HADES-ICM               
1 63492U 25052BN  26063.16697459  .00178886  00000+0  26029-2 0  9990
2 63492  97.3959 323.4202 0008433 121.7965 238.4111 15.55090761 54281
INNOSAT 16 (RS92S7)     
1 64878U 25155C   26063.13608578  .00010332  00000+0  42776-3 0  9993
2 64878  97.4455  30.7720 0010300 184.6786 175.4356 15.24074001 64669
GEOSCAN 6 (RS92S6)      
1 64879U 25155D   26063.14828684  .00017856  00000+0  65898-3 0  9995
2 64879  97.4454  31.5362 0007939 172.4745 187.6615 15.27798683 64715
GEOSCAN 1 (RS92S1)      
1 64880U 25155E   26063.12011311  .00019761  00000+0  71981-3 0  9993
2 64880  97.4453  31.5784 0007861 172.6189 187.5168 15.28208402 64710
239ALFEROV (RS61S)      
1 64881U 25155F   26063.15125664  .00025756  00000+0  89555-3 0  9991
2 64881  97.4458  31.8702 0007587 169.7253 190.4143 15.29679835 64734
GEOSCAN 2 (RS92S2)      
1 64890U 25155Q   26063.13356258  .00019571  00000+0  70642-3 0  9999
2 64890  97.4451  31.7002 0007735 158.6309 201.5255 15.28511105 64724
GEOSCAN 5 (RS92S5)      
1 64891U 25155R   26063.16262153  .00025198  00000+0  86757-3 0  9999
2 64891  97.4452  31.9775 0006221 172.4847 187.6488 15.30013865 64742
GEOSCAN 4 (RS92S4)      
1 64892U 25155S   26063.15537642  .00024815  00000+0  85180-3 0  9991
2 64892  97.4454  31.9936 0006216 172.7609 187.3722 15.30115353 64740
GEOSCAN 3 (RS92S3)      
1 64893U 25155T   26063.13801409  .00031380  00000+0  10341-2 0  9996
2 64893  97.4446  32.1566 0005787 172.5945 187.5383 15.31388910 64755
INNOSAT 3 (RS92S0)      
1 64894U 25155U   26063.12350090  .00051912  00000+0  14661-2 0  9993
2 64894  97.4417  32.7520 0005360 162.0521 198.0912 15.36177668 64791
